[{"OBJECT_NAME":"KUIPER-00032","OBJECT_ID":"2025-088X","EPOCH":"2026-03-09T03:33:31.870656","MEAN_MOTION":15.37319113,"ECCENTRICITY":0.00053922,"INCLINATION":51.8716,"RA_OF_ASC_NODE":26.8422,"ARG_OF_PERICENTER":109.6944,"MEAN_ANOMALY":250.4625,"EPHEMERIS_TYPE":0,"CLASSIFICATION_TYPE":"U","NORAD_CAT_ID":63745,"ELEMENT_SET_NO":999,"REV_AT_EPOCH":4946,"BSTAR":0.00060942343,"MEAN_MOTION_DOT":0.00022318,"MEAN_MOTION_DDOT":0},{"OBJECT_NAME":"TRANSPORTER-6 OBJECT H","OBJECT_ID":"2023-001H","EPOCH":"2026-03-09T22:33:13.150656","MEAN_MOTION":15.3897652,"ECCENTRICITY":0.00084522,"INCLINATION":97.3274,"RA_OF_ASC_NODE":133.0043,"ARG_OF_PERICENTER":107.7381,"MEAN_ANOMALY":252.4788,"EPHEMERIS_TYPE":0,"CLASSIFICATION_TYPE":"U","NORAD_CAT_ID":55016,"ELEMENT_SET_NO":999,"REV_AT_EPOCH":17694,"BSTAR":0.00043815759,"MEAN_MOTION_DOT":0.0001686,"MEAN_MOTION_DDOT":0}]
